CTC1_L_00601007-03
1 74181U 24842ZR  26037.47810185  .00000000  00000+0  00000-0 0  9992
2 74181  70.0000 180.0000 0000000   0.0000 144.0000  5.61059952    11
CTC1_L_00601007-04
1 74182U 22025C   26037.47810185  .00000000  00000+0  00000-0 0  9994
2 74182  70.0000 180.0000 0000000   0.0000 180.0000  5.61059952    12
CTC1_L_00601007-05
1 74183U 25098CI  26037.47810185  .00000000  00000+0  00000-0 0  9998
2 74183  70.0000 180.0000 0000000   0.0000 216.0000  5.61059952    13
CTC1_L_00601007-06
1 74184U 24948MG  26037.47810185  .00000000  00000+0  00000-0 0  9992
2 74184  70.0000 180.0000 0000000   0.0000 252.0000  5.61059952    14
CTC1_L_00601007-07
1 74185U 26910QT  26037.47810185  .00000000  00000+0  00000-0 0  9994
2 74185  70.0000 180.0000 0000000   0.0000 288.0000  5.61059952    14
CTC1_L_00601007-08
1 74186U 24258BA  26037.47810185  .00000000  00000+0  00000-0 0  9998
2 74186  70.0000 180.0000 0000000   0.0000 324.0000  5.61059952    16
CTC1_L_00601007-09
1 74187U 25060QV  26037.47810185  .00000000  00000+0  00000-0 0  9991
2 74187  70.0000 180.0000 0000000   0.0000   0.0000  5.61059952    18
CTC1_L_00601007-10
1 74188U 23176QT  26037.47810185  .00000000  00000+0  00000-0 0  9998
2 74188  70.0000 180.0000 0000000   0.0000  36.0000  5.61059952    18
CTC1_L_00601008-01
1 74189U 25427WT  26037.47810185  .00000000  00000+0  00000-0 0  9990
2 74189  70.0000 210.0000 0000000   0.0000  84.0000  5.61059952    16
CTC1_L_00601008-02
1 74190U 23095CW  26037.47810185  .00000000  00000+0  00000-0 0  9991
2 74190  70.0000 210.0000 0000000   0.0000 120.0000  5.61059952    19
CTC1_L_00601008-03
1 74191U 23689NV  26037.47810185  .00000000  00000+0  00000-0 0  9991
2 74191  70.0000 210.0000 0000000   0.0000 156.0000  5.61059952    19
CTC1_L_00601008-04
1 74192U 25561WR  26037.47810185  .00000000  00000+0  00000-0 0  9993
2 74192  70.0000 210.0000 0000000   0.0000 192.0000  5.61059952    10
CTC1_L_00601008-05
1 74193U 23525UR  26037.47810185  .00000000  00000+0  00000-0 0  9992
2 74193  70.0000 210.0000 0000000   0.0000 228.0000  5.61059952    11
CTC1_L_00601008-06
1 74194U 25494WK  26037.47810185  .00000000  00000+0  00000-0 0  9990
2 74194  70.0000 210.0000 0000000   0.0000 264.0000  5.61059952    12
CTC1_L_00601008-07
1 74195U 26403YU  26037.47810185  .00000000  00000+0  00000-0 0  9992
2 74195  70.0000 210.0000 0000000   0.0000 300.0000  5.61059952    14
CTC1_L_00601008-08
1 74196U 25118QV  26037.47810185  .00000000  00000+0  00000-0 0  9995
2 74196  70.0000 210.0000 0000000   0.0000 336.0000  5.61059952    14
CTC1_L_00601008-09
1 74197U 22026XE  26037.47810185  .00000000  00000+0  00000-0 0  9991
2 74197  70.0000 210.0000 0000000   0.0000  12.0000  5.61059952    16
CTC1_L_00601008-10
1 74198U 24443KQ  26037.47810185  .00000000  00000+0  00000-0 0  9997
2 74198  70.0000 210.0000 0000000   0.0000  48.0000  5.61059952    16
CTC1_L_00601009-01
1 74199U 25328TG  26037.47810185  .00000000  00000+0  00000-0 0  9991
2 74199  70.0000 240.0000 0000000   0.0000  96.0000  5.61059952    13
CTC1_L_00601009-02
1 74200U 26334FU  26037.47810185  .00000000  00000+0  00000-0 0  9992
2 74200  70.0000 240.0000 0000000   0.0000 132.0000  5.61059952    17
CTC1_L_00601009-03
1 74201U 26815JN  26037.47810185  .00000000  00000+0  00000-0 0  9997
2 74201  70.0000 240.0000 0000000   0.0000 168.0000  5.61059952    17
CTC1_L_00601009-04
1 74202U 22400WG  26037.47810185  .00000000  00000+0  00000-0 0  9994
2 74202  70.0000 240.0000 0000000   0.0000 204.0000  5.61059952    19
CTC1_L_00601009-05
1 74203U 25884SF  26037.47810185  .00000000  00000+0  00000-0 0  9994
2 74203  70.0000 240.0000 0000000   0.0000 240.0000  5.61059952    10
CTC1_L_00601009-06
1 74204U 23240HI  26037.47810185  .00000000  00000+0  00000-0 0  9999
2 74204  70.0000 240.0000 0000000   0.0000 276.0000  5.61059952    10
CTC1_L_00601009-07
1 74205U 22878AF  26037.47810185  .00000000  00000+0  00000-0 0  9996
2 74205  70.0000 240.0000 0000000   0.0000 312.0000  5.61059952    12
CTC1_L_00601009-08
1 74206U 25541QA  26037.47810185  .00000000  00000+0  00000-0 0  9997
2 74206  70.0000 240.0000 0000000   0.0000 348.0000  5.61059952    12
CTC1_L_00601009-09
1 74207U 24407VC  26037.47810185  .00000000  00000+0  00000-0 0  9998
2 74207  70.0000 240.0000 0000000   0.0000  24.0000  5.61059952    14
CTC1_L_00601009-10
1 74208U 26354PL  26037.47810185  .00000000  00000+0  00000-0 0  9992
2 74208  70.0000 240.0000 0000000   0.0000  60.0000  5.61059952    15
CTC1_L_00601010-01
1 74209U 23211MA  26037.47810185  .00000000  00000+0  00000-0 0  9992
2 74209  70.0000 270.0000 0000000   0.0000 108.0000  5.61059952    12
CTC1_L_00601010-02
1 74210U 23251LA  26037.47810185  .00000000  00000+0  00000-0 0  9998
2 74210  70.0000 270.0000 0000000   0.0000 144.0000  5.61059952    14
CTC1_L_00601010-03
1 74211U 23733ZQ  26037.47810185  .00000000  00000+0  00000-0 0  9994
2 74211  70.0000 270.0000 0000000   0.0000 180.0000  5.61059952    15
CTC1_L_00601010-04
1 74212U 22243W   26037.47810185  .00000000  00000+0  00000-0 0  9990
2 74212  70.0000 270.0000 0000000   0.0000 216.0000  5.61059952    16
CTC1_L_00601010-05
1 74213U 26491IN  26037.47810185  .00000000  00000+0  00000-0 0  9990
2 74213  70.0000 270.0000 0000000   0.0000 252.0000  5.61059952    17
CTC1_L_00601010-06
1 74214U 22342PF  26037.47810185  .00000000  00000+0  00000-0 0  9992
2 74214  70.0000 270.0000 0000000   0.0000 288.0000  5.61059952    17
CTC1_L_00601010-07
1 74215U 25795RO  26037.47810185  .00000000  00000+0  00000-0 0  9998
2 74215  70.0000 270.0000 0000000   0.0000 324.0000  5.61059952    19
CTC1_L_00601010-08
1 74216U 23642XJ  26037.47810185  .00000000  00000+0  00000-0 0  9998
2 74216  70.0000 270.0000 0000000   0.0000   0.0000  5.61059952    11
CTC1_L_00601010-09
1 74217U 26480VL  26037.47810185  .00000000  00000+0  00000-0 0  9992
2 74217  70.0000 270.0000 0000000   0.0000  36.0000  5.61059952    11
CTC1_L_00601010-10
1 74218U 26420VN  26037.47810185  .00000000  00000+0  00000-0 0  9997
2 74218  70.0000 270.0000 0000000   0.0000  72.0000  5.61059952    12
CTC1_L_00601011-01
1 74219U 26578GX  26037.47810185  .00000000  00000+0  00000-0 0  9992
2 74219  70.0000 300.0000 0000000   0.0000 120.0000  5.61059952    11
CTC1_L_00601011-02
1 74220U 22187NL  26037.47810185  .00000000  00000+0  00000-0 0  9996
2 74220  70.0000 300.0000 0000000   0.0000 156.0000  5.61059952    12
CTC1_L_00601011-03
1 74221U 24094MK  26037.47810185  .00000000  00000+0  00000-0 0  9996
2 74221  70.0000 300.0000 0000000   0.0000 192.0000  5.61059952    13
CTC1_L_00601011-04
1 74222U 26594SO  26037.47810185  .00000000  00000+0  00000-0 0  9994
2 74222  70.0000 300.0000 0000000   0.0000 228.0000  5.61059952    14
CTC1_L_00601011-05
1 74223U 22215IJ  26037.47810185  .00000000  00000+0  00000-0 0  9991
2 74223  70.0000 300.0000 0000000   0.0000 264.0000  5.61059952    15
CTC1_L_00601011-06
1 74224U 23408BD  26037.47810185  .00000000  00000+0  00000-0 0  9997
2 74224  70.0000 300.0000 0000000   0.0000 300.0000  5.61059952    17
CTC1_L_00601011-07
1 74225U 24141UL  26037.47810185  .00000000  00000+0  00000-0 0  9993
2 74225  70.0000 300.0000 0000000   0.0000 336.0000  5.61059952    17
CTC1_L_00601011-08
1 74226U 23510AR  26037.47810185  .00000000  00000+0  00000-0 0  9993
2 74226  70.0000 300.0000 0000000   0.0000  12.0000  5.61059952    19
CTC1_L_00601011-09
1 74227U 24557NE  26037.47810185  .00000000  00000+0  00000-0 0  9996
2 74227  70.0000 300.0000 0000000   0.0000  48.0000  5.61059952    19
CTC1_L_00601011-10
1 74228U 24591QS  26037.47810185  .00000000  00000+0  00000-0 0  9995
2 74228  70.0000 300.0000 0000000   0.0000  84.0000  5.61059952    10
CTC1_L_00601012-01
1 74229U 24202DB  26037.47810185  .00000000  00000+0  00000-0 0  9995
2 74229  70.0000 330.0000 0000000   0.0000 132.0000  5.61059952    18
CTC1_L_00601012-02
1 74230U 22477MT  26037.47810185  .00000000  00000+0  00000-0 0  9999
2 74230  70.0000 330.0000 0000000   0.0000 168.0000  5.61059952    19
CTC1_L_00601012-03
1 74231U 24450RF  26037.47810185  .00000000  00000+0  00000-0 0  9993
2 74231  70.0000 330.0000 0000000   0.0000 204.0000  5.61059952    11
CTC1_L_00601012-04
1 74232U 23043WY  26037.47810185  .00000000  00000+0  00000-0 0  9991
2 74232  70.0000 330.0000 0000000   0.0000 240.0000  5.61059952    12
CTC1_L_00601012-05
1 74233U 23463GC  26037.47810185  .00000000  00000+0  00000-0 0  9998
2 74233  70.0000 330.0000 0000000   0.0000 276.0000  5.61059952    12
CTC1_L_00601012-06
1 74234U 24731KU  26037.47810185  .00000000  00000+0  00000-0 0  9998
2 74234  70.0000 330.0000 0000000   0.0000 312.0000  5.61059952    14
CTC1_L_00601012-07
1 74235U 24448DV  26037.47810185  .00000000  00000+0  00000-0 0  9994
2 74235  70.0000 330.0000 0000000   0.0000 348.0000  5.61059952    14
CTC1_L_00601012-08
1 74236U 25728ZM  26037.47810185  .00000000  00000+0  00000-0 0  9997
2 74236  70.0000 330.0000 0000000   0.0000  24.0000  5.61059952    16
CTC1_L_00601012-09
1 74237U 26608XO  26037.47810185  .00000000  00000+0  00000-0 0  9996
2 74237  70.0000 330.0000 0000000   0.0000  60.0000  5.61059952    17
CTC1_L_00601012-10
1 74238U 24910NY  26037.47810185  .00000000  00000+0  00000-0 0  9991
2 74238  70.0000 330.0000 0000000   0.0000  96.0000  5.61059952    17
